{
  "type": "FeatureCollection",
  "features": [
    {
      "type": "Feature",
      "properties": {
        "norad_id": 66863,
        "name": "STARLINK-36134",
        "group": "last-30-days",
        "lat": -16.569393071188813,
        "lon": 39.901072953751914,
        "alt_km": 379.920549088979,
        "timestamp": "2025-12-23T05:02:10.750822+00:00",
        "meta_object_name": "STARLINK-36134",
        "meta_object_id": "2025-281R",
        "meta_epoch": "2025-12-22T22:00:03.000096",
        "meta_mean_motion": 15.64395719,
        "meta_eccentricity": 0.00011789,
        "meta_inclination": 43.0006,
        "meta_ra_of_asc_node": 60.2701,
        "meta_arg_of_pericenter": 282.773,
        "meta_mean_anomaly": 200.3244,
        "meta_ephemeris_type": 0,
        "meta_classification_type": "U",
        "meta_norad_cat_id": 66863,
        "meta_element_set_no": 999,
        "meta_rev_at_epoch": 302,
        "meta_bstar": -0.023490609,
        "meta_mean_motion_dot": -0.02032325,
        "meta_mean_motion_ddot": 0,
        "tle_line1": "1 66863U 25281R   25356.91670139 -.02032325  00000+0 -23491-1 0  9992",
        "tle_line2": "2 66863  43.0006  60.2701 0001178 282.7730 200.3244 15.64395719  3026"
      },
      "geometry": {
        "type": "Point",
        "coordinates": [
          39.901072953751914,
          -16.569393071188813
        ]
      }
    },
    {
      "type": "Feature",
      "properties": {
        "norad_id": 66864,
        "name": "STARLINK-36070",
        "group": "last-30-days",
        "lat": -15.32783881696569,
        "lon": 41.40966774105805,
        "alt_km": 379.83349438065216,
        "timestamp": "2025-12-23T05:02:10.750831+00:00",
        "meta_object_name": "STARLINK-36070",
        "meta_object_id": "2025-281S",
        "meta_epoch": "2025-12-22T22:00:03.000096",
        "meta_mean_motion": 15.64390391,
        "meta_eccentricity": 0.00011425,
        "meta_inclination": 43.0005,
        "meta_ra_of_asc_node": 60.2645,
        "meta_arg_of_pericenter": 283.0457,
        "meta_mean_anomaly": 201.9678,
        "meta_ephemeris_type": 0,
        "meta_classification_type": "U",
        "meta_norad_cat_id": 66864,
        "meta_element_set_no": 999,
        "meta_rev_at_epoch": 305,
        "meta_bstar": -0.023359713,
        "meta_mean_motion_dot": -0.02022001,
        "meta_mean_motion_ddot": 0,
        "tle_line1": "1 66864U 25281S   25356.91670139 -.02022001  00000+0 -23360-1 0  9998",
        "tle_line2": "2 66864  43.0005  60.2645 0001142 283.0457 201.9678 15.64390391  3056"
      },
      "geometry": {
        "type": "Point",
        "coordinates": [
          41.40966774105805,
          -15.32783881696569
        ]
      }
    },
    {
      "type": "Feature",
      "properties": {
        "norad_id": 66865,
        "name": "STARLINK-36117",
        "group": "last-30-days",
        "lat": -12.81073226309591,
        "lon": 44.382715820297584,
        "alt_km": 379.60674959368407,
        "timestamp": "2025-12-23T05:02:10.750845+00:00",
        "meta_object_name": "STARLINK-36117",
        "meta_object_id": "2025-281T",
        "meta_epoch": "2025-12-22T22:00:03.000096",
        "meta_mean_motion": 15.64392967,
        "meta_eccentricity": 0.00011872,
        "meta_inclination": 43.0007,
        "meta_ra_of_asc_node": 60.2557,
        "meta_arg_of_pericenter": 283.5966,
        "meta_mean_anomaly": 205.251,
        "meta_ephemeris_type": 0,
        "meta_classification_type": "U",
        "meta_norad_cat_id": 66865,
        "meta_element_set_no": 999,
        "meta_rev_at_epoch": 302,
        "meta_bstar": -0.023422907,
        "meta_mean_motion_dot": -0.02027008,
        "meta_mean_motion_ddot": 0,
        "tle_line1": "1 66865U 25281T   25356.91670139 -.02027008  00000+0 -23423-1 0  9991",
        "tle_line2": "2 66865  43.0007  60.2557 0001187 283.5966 205.2510 15.64392967  3020"
      },
      "geometry": {
        "type": "Point",
        "coordinates": [
          44.382715820297584,
          -12.81073226309591
        ]
      }
    },
    {
      "type": "Feature",
      "properties": {
        "norad_id": 66866,
        "name": "STARLINK-36126",
        "group": "last-30-days",
        "lat": -11.539310550581169,
        "lon": 45.844726404731176,
        "alt_km": 379.48345555618107,
        "timestamp": "2025-12-23T05:02:10.750855+00:00",
        "meta_object_name": "STARLINK-36126",
        "meta_object_id": "2025-281U",
        "meta_epoch": "2025-12-22T22:00:03.000096",
        "meta_mean_motion": 15.64390927,
        "meta_eccentricity": 0.00012204,
        "meta_inclination": 43.0005,
        "meta_ra_of_asc_node": 60.2499,
        "meta_arg_of_pericenter": 283.7439,
        "meta_mean_anomaly": 207.0218,
        "meta_ephemeris_type": 0,
        "meta_classification_type": "U",
        "meta_norad_cat_id": 66866,
        "meta_element_set_no": 999,
        "meta_rev_at_epoch": 305,
        "meta_bstar": -0.02338319,
        "meta_mean_motion_dot": -0.02023878,
        "meta_mean_motion_ddot": 0,
        "tle_line1": "1 66866U 25281U   25356.91670139 -.02023878  00000+0 -23383-1 0  9998",
        "tle_line2": "2 66866  43.0005  60.2499 0001220 283.7439 207.0218 15.64390927  3051"
      },
      "geometry": {
        "type": "Point",
        "coordinates": [
          45.844726404731176,
          -11.539310550581169
        ]
      }
    },
    {
      "type": "Feature",
      "properties": {
        "norad_id": 66867,
        "name": "STARLINK-36101",
        "group": "last-30-days",
        "lat": -10.262155314937722,
        "lon": 47.293208478515936,
        "alt_km": 379.43941744837775,
        "timestamp": "2025-12-23T05:02:10.750865+00:00",
        "meta_object_name": "STARLINK-36101",
        "meta_object_id": "2025-281V",
        "meta_epoch": "2025-12-22T22:00:03.000096",
        "meta_mean_motion": 15.64387897,
        "meta_eccentricity": 0.00010202,
        "meta_inclination": 43.0003,
        "meta_ra_of_asc_node": 60.2456,
        "meta_arg_of_pericenter": 285.1758,
        "meta_mean_anomaly": 207.5096,
        "meta_ephemeris_type": 0,
        "meta_classification_type": "U",
        "meta_norad_cat_id": 66867,
        "meta_element_set_no": 999,
        "meta_rev_at_epoch": 286,
        "meta_bstar": -0.023361542,
        "meta_mean_motion_dot": -0.0202187,
        "meta_mean_motion_ddot": 0,
        "tle_line1": "1 66867U 25281V   25356.91670139 -.02021870  00000+0 -23362-1 0  9996",
        "tle_line2": "2 66867  43.0003  60.2456 0001020 285.1758 207.5096 15.64387897  2860"
      },
      "geometry": {
        "type": "Point",
        "coordinates": [
          47.293208478515936,
          -10.262155314937722
        ]
      }
    },
    {
      "type": "Feature",
      "properties": {
        "norad_id": 66868,
        "name": "STARLINK-36108",
        "group": "last-30-days",
        "lat": -8.975470618385817,
        "lon": 48.73261042808144,
        "alt_km": 379.2981762667532,
        "timestamp": "2025-12-23T05:02:10.750875+00:00",
        "meta_object_name": "STARLINK-36108",
        "meta_object_id": "2025-281W",
        "meta_epoch": "2025-12-22T22:00:03.000096",
        "meta_mean_motion": 15.64394393,
        "meta_eccentricity": 0.00011642,
        "meta_inclination": 43.0002,
        "meta_ra_of_asc_node": 60.2404,
        "meta_arg_of_pericenter": 282.9417,
        "meta_mean_anomaly": 211.6578,
        "meta_ephemeris_type": 0,
        "meta_classification_type": "U",
        "meta_norad_cat_id": 66868,
        "meta_element_set_no": 999,
        "meta_rev_at_epoch": 286,
        "meta_bstar": -0.023459745,
        "meta_mean_motion_dot": -0.02029883,
        "meta_mean_motion_ddot": 0,
        "tle_line1": "1 66868U 25281W   25356.91670139 -.02029883  00000+0 -23460-1 0  9998",
        "tle_line2": "2 66868  43.0002  60.2404 0001164 282.9417 211.6578 15.64394393  2869"
      },
      "geometry": {
        "type": "Point",
        "coordinates": [
          48.73261042808144,
          -8.975470618385817
        ]
      }
    },
    {
      "type": "Feature",
      "properties": {
        "norad_id": 66869,
        "name": "STARLINK-36092",
        "group": "last-30-days",
        "lat": -7.685563195355057,
        "lon": 50.15970195802235,
        "alt_km": 379.2051141895545,
        "timestamp": "2025-12-23T05:02:10.750885+00:00",
        "meta_object_name": "STARLINK-36092",
        "meta_object_id": "2025-281X",
        "meta_epoch": "2025-12-22T22:00:03.000096",
        "meta_mean_motion": 15.64393505,
        "meta_eccentricity": 0.00011196,
        "meta_inclination": 43.0001,
        "meta_ra_of_asc_node": 60.2357,
        "meta_arg_of_pericenter": 282.2833,
        "meta_mean_anomaly": 214.2329,
        "meta_ephemeris_type": 0,
        "meta_classification_type": "U",
        "meta_norad_cat_id": 66869,
        "meta_element_set_no": 999,
        "meta_rev_at_epoch": 306,
        "meta_bstar": -0.023436432,
        "meta_mean_motion_dot": -0.0202802,
        "meta_mean_motion_ddot": 0,
        "tle_line1": "1 66869U 25281X   25356.91670139 -.02028020  00000+0 -23436-1 0  9994",
        "tle_line2": "2 66869  43.0001  60.2357 0001119 282.2833 214.2329 15.64393505  3061"
      },
      "geometry": {
        "type": "Point",
        "coordinates": [
          50.15970195802235,
          -7.685563195355057
        ]
      }
    }
  ]
}